MALLIGYONG-1            
1 58400U 23179A   23363.43340452  .00006968  00000+0  30989-3 0  9991
2 58400  97.4256 247.7110 0016742 140.1572 220.0897 15.21685581  5751
